{
  "norad_id": 68460,
  "name": "COSMO",
  "history": [
    {
      "epoch": "2026-04-14T03:32:30.488640Z",
      "apogee_km": 518.4881382310277,
      "perigee_km": 512.5746116256469,
      "latitude_deg": 7.99681927434143e-05,
      "longitude_deg": 168.08658351627847,
      "height_km": 517.0522562378045,
      "semi_major_axis_km": 6893.6683749283375,
      "eccentricity": 0.00042891,
      "inclination_deg": 97.4448,
      "raan_deg": 63.5418,
      "arg_perigee_deg": 302.0289,
      "mean_anomaly_deg": 58.0528,
      "mean_motion_rev_day": 15.16796021
    },
    {
      "epoch": "2026-04-16T20:27:22.628736Z",
      "apogee_km": 518.3275946634476,
      "perigee_km": 512.6072817006443,
      "latitude_deg": 5.7002981864665453e-05,
      "longitude_deg": -85.64020210225448,
      "height_km": 517.626690323329,
      "semi_major_axis_km": 6893.604438182046,
      "eccentricity": 0.0004149,
      "inclination_deg": 97.4457,
      "raan_deg": 66.1982,
      "arg_perigee_deg": 288.9785,
      "mean_anomaly_deg": 71.0999,
      "mean_motion_rev_day": 15.16817123
    },
    {
      "epoch": "2026-04-17T20:12:19.024704Z",
      "apogee_km": 518.2841409419734,
      "perigee_km": 512.5981798037346,
      "latitude_deg": -3.490762813066413e-05,
      "longitude_deg": -81.87860882986466,
      "height_km": 517.8473208331889,
      "semi_major_axis_km": 6893.578160372854,
      "eccentricity": 0.00041241,
      "inclination_deg": 97.446,
      "raan_deg": 67.1701,
      "arg_perigee_deg": 283.9089,
      "mean_anomaly_deg": 76.1685,
      "mean_motion_rev_day": 15.16825796
    },
    {
      "epoch": "2026-04-20T19:27:04.121568Z",
      "apogee_km": 518.0970120657475,
      "perigee_km": 512.5656930596506,
      "latitude_deg": 3.294602528960886e-05,
      "longitude_deg": -70.5763876351484,
      "height_km": 518.4936532738517,
      "semi_major_axis_km": 6893.468352562699,
      "eccentricity": 0.0004012,
      "inclination_deg": 97.4467,
      "raan_deg": 70.0862,
      "arg_perigee_deg": 268.4968,
      "mean_anomaly_deg": 91.5806,
      "mean_motion_rev_day": 15.16862039
    },
    {
      "epoch": "2026-04-22T20:31:50.193120Z",
      "apogee_km": 518.0452831595967,
      "perigee_km": 512.4740399777174,
      "latitude_deg": 1.5515126546800514e-05,
      "longitude_deg": -86.7752772630321,
      "height_km": 518.9403431231135,
      "semi_major_axis_km": 6893.396661568657,
      "eccentricity": 0.0004041,
      "inclination_deg": 97.4464,
      "raan_deg": 72.0949,
      "arg_perigee_deg": 257.7545,
      "mean_anomaly_deg": 102.3236,
      "mean_motion_rev_day": 15.16885702
    },
    {
      "epoch": "2026-04-22T20:31:50.193984Z",
      "apogee_km": 518.0454179966791,
      "perigee_km": 512.4738990813812,
      "latitude_deg": 1.7749346838896446e-05,
      "longitude_deg": -86.77528116329532,
      "height_km": 518.9403693427494,
      "semi_major_axis_km": 6893.39665853903,
      "eccentricity": 0.00040412,
      "inclination_deg": 97.4464,
      "raan_deg": 72.0949,
      "arg_perigee_deg": 257.7545,
      "mean_anomaly_deg": 102.3236,
      "mean_motion_rev_day": 15.16885703
    },
    {
      "epoch": "2026-04-24T04:11:39.792768Z",
      "apogee_km": 518.0438176142106,
      "perigee_km": 512.3774858444895,
      "latitude_deg": 2.270439948600829e-05,
      "longitude_deg": 158.26356917501354,
      "height_km": 519.2165205983232,
      "semi_major_axis_km": 6893.34765172935,
      "eccentricity": 0.000411,
      "inclination_deg": 97.4463,
      "raan_deg": 73.3908,
      "arg_perigee_deg": 251.137,
      "mean_anomaly_deg": 108.9418,
      "mean_motion_rev_day": 15.16901879
    },
    {
      "epoch": "2026-04-25T13:26:27.405024Z",
      "apogee_km": 518.0140513972665,
      "perigee_km": 512.2748431299033,
      "latitude_deg": -1.763610666680816e-05,
      "longitude_deg": 19.56050158228191,
      "height_km": 519.4971188274139,
      "semi_major_axis_km": 6893.281447263585,
      "eccentricity": 0.00041629,
      "inclination_deg": 97.4462,
      "raan_deg": 74.7515,
      "arg_perigee_deg": 243.8919,
      "mean_anomaly_deg": 116.1886,
      "mean_motion_rev_day": 15.16923732
    },
    {
      "epoch": "2026-04-27T20:51:02.395008Z",
      "apogee_km": 517.9635130202732,
      "perigee_km": 512.0671105327792,
      "latitude_deg": -4.631261947319296e-05,
      "longitude_deg": -91.5928813640025,
      "height_km": 519.9352713223034,
      "semi_major_axis_km": 6893.152311776526,
      "eccentricity": 0.0004277,
      "inclination_deg": 97.4462,
      "raan_deg": 77.0195,
      "arg_perigee_deg": 231.624,
      "mean_anomaly_deg": 128.4609,
      "mean_motion_rev_day": 15.16966359
    },
    {
      "epoch": "2026-04-28T20:35:50.165664Z",
      "apogee_km": 517.9908503880397,
      "perigee_km": 511.95799926902964,
      "latitude_deg": -8.617701777853559e-06,
      "longitude_deg": -87.79486827746955,
      "height_km": 520.1087632656489,
      "semi_major_axis_km": 6893.111424828535,
      "eccentricity": 0.0004376,
      "inclination_deg": 97.4464,
      "raan_deg": 77.9918,
      "arg_perigee_deg": 227.3221,
      "mean_anomaly_deg": 132.7644,
      "mean_motion_rev_day": 15.16979856
    },
    {
      "epoch": "2026-04-29T20:20:37.168224Z",
      "apogee_km": 518.0362112847124,
      "perigee_km": 511.8200451520852,
      "latitude_deg": 2.3546508949963812e-05,
      "longitude_deg": -83.99374570938006,
      "height_km": 520.2926526878256,
      "semi_major_axis_km": 6893.065128218399,
      "eccentricity": 0.0004509,
      "inclination_deg": 97.4466,
      "raan_deg": 78.964,
      "arg_perigee_deg": 222.9478,
      "mean_anomaly_deg": 137.1404,
      "mean_motion_rev_day": 15.16995139
    },
    {
      "epoch": "2026-04-30T13:45:27.135936Z",
      "apogee_km": 518.0512930592986,
      "perigee_km": 511.7436150910644,
      "latitude_deg": -5.896120716488587e-05,
      "longitude_deg": 14.795903350028953,
      "height_km": 520.4066603434975,
      "semi_major_axis_km": 6893.034454075181,
      "eccentricity": 0.00045754,
      "inclination_deg": 97.4469,
      "raan_deg": 79.677,
      "arg_perigee_deg": 219.8913,
      "mean_anomaly_deg": 140.1984,
      "mean_motion_rev_day": 15.17005265
    },
    {
      "epoch": "2026-05-02T10:04:58.910592Z",
      "apogee_km": 518.0639985337393,
      "perigee_km": 511.5184738806365,
      "latitude_deg": -7.820003047356267e-05,
      "longitude_deg": 69.90812565978644,
      "height_km": 520.6892450018235,
      "semi_major_axis_km": 6892.928236207187,
      "eccentricity": 0.0004748,
      "inclination_deg": 97.4477,
      "raan_deg": 81.492,
      "arg_perigee_deg": 210.8719,
      "mean_anomaly_deg": 149.2235,
      "mean_motion_rev_day": 15.1704033
    },
    {
      "epoch": "2026-05-03T14:34:38.878752Z",
      "apogee_km": 518.090322548861,
      "perigee_km": 511.36564347143576,
      "latitude_deg": 1.87029434789563e-06,
      "longitude_deg": 2.4883532424425887,
      "height_km": 520.8444627876139,
      "semi_major_axis_km": 6892.8649830101485,
      "eccentricity": 0.0004878,
      "inclination_deg": 97.4481,
      "raan_deg": 82.659,
      "arg_perigee_deg": 205.7737,
      "mean_anomaly_deg": 154.3254,
      "mean_motion_rev_day": 15.17061212
    },
    {
      "epoch": "2026-05-04T19:04:17.624352Z",
      "apogee_km": 518.1506566886337,
      "perigee_km": 511.1985668969801,
      "latitude_deg": -6.720418037163762e-06,
      "longitude_deg": -64.92640060193621,
      "height_km": 521.0082324983601,
      "semi_major_axis_km": 6892.811611792807,
      "eccentricity": 0.0005043,
      "inclination_deg": 97.4481,
      "raan_deg": 83.8259,
      "arg_perigee_deg": 200.994,
      "mean_anomaly_deg": 159.1087,
      "mean_motion_rev_day": 15.17078832
    },
    {
      "epoch": "2026-05-05T18:48:58.944384Z",
      "apogee_km": 518.1904114488516,
      "perigee_km": 511.06191578503876,
      "latitude_deg": -4.071567597616273e-05,
      "longitude_deg": -61.101231480769215,
      "height_km": 521.1143272946225,
      "semi_major_axis_km": 6892.763163616945,
      "eccentricity": 0.0005171,
      "inclination_deg": 97.448,
      "raan_deg": 84.7984,
      "arg_perigee_deg": 197.4564,
      "mean_anomaly_deg": 162.6492,
      "mean_motion_rev_day": 15.17094827
    },
    {
      "epoch": "2026-05-06T20:08:38.103360Z",
      "apogee_km": 518.2369763459219,
      "perigee_km": 510.9279366342589,
      "latitude_deg": 8.90364936326429e-05,
      "longitude_deg": -81.01738006230194,
      "height_km": 521.2218592888813,
      "semi_major_axis_km": 6892.71945649009,
      "eccentricity": 0.0005302,
      "inclination_deg": 97.448,
      "raan_deg": 85.8356,
      "arg_perigee_deg": 193.6241,
      "mean_anomaly_deg": 166.4851,
      "mean_motion_rev_day": 15.17109257
    },
    {
      "epoch": "2026-05-07T19:53:17.887200Z",
      "apogee_km": 518.2830094288811,
      "perigee_km": 510.8099619936729,
      "latitude_deg": 6.349378079893261e-06,
      "longitude_deg": -77.18588600660263,
      "height_km": 521.3221816647546,
      "semi_major_axis_km": 6892.683485711276,
      "eccentricity": 0.0005421,
      "inclination_deg": 97.448,
      "raan_deg": 86.808,
      "arg_perigee_deg": 189.202,
      "mean_anomaly_deg": 170.9115,
      "mean_motion_rev_day": 15.17121133
    },
    {
      "epoch": "2026-05-08T21:12:55.535904Z",
      "apogee_km": 518.3006853088482,
      "perigee_km": 510.7077517425196,
      "latitude_deg": 4.893258277873907e-05,
      "longitude_deg": -97.09581227541634,
      "height_km": 521.3709717736123,
      "semi_major_axis_km": 6892.641218525683,
      "eccentricity": 0.0005508,
      "inclination_deg": 97.4479,
      "raan_deg": 87.8451,
      "arg_perigee_deg": 185.3467,
      "mean_anomaly_deg": 174.7709,
      "mean_motion_rev_day": 15.17135088
    },
    {
      "epoch": "2026-05-09T19:22:35.390784Z",
      "apogee_km": 518.3589483690985,
      "perigee_km": 510.599241169607,
      "latitude_deg": -8.918877046434674e-05,
      "longitude_deg": -69.51438107292488,
      "height_km": 521.443001471118,
      "semi_major_axis_km": 6892.6160947693525,
      "eccentricity": 0.0005629,
      "inclination_deg": 97.4476,
      "raan_deg": 88.7527,
      "arg_perigee_deg": 181.9966,
      "mean_anomaly_deg": 178.1245,
      "mean_motion_rev_day": 15.17143383
    },
    {
      "epoch": "2026-05-10T20:42:11.804832Z",
      "apogee_km": 518.4202960139555,
      "perigee_km": 510.48141332294745,
      "latitude_deg": -4.48539935802175e-05,
      "longitude_deg": -89.41914725288248,
      "height_km": 521.5047313668247,
      "semi_major_axis_km": 6892.587854668451,
      "eccentricity": 0.0005759,
      "inclination_deg": 97.4474,
      "raan_deg": 89.7898,
      "arg_perigee_deg": 178.4339,
      "mean_anomaly_deg": 181.6913,
      "mean_motion_rev_day": 15.17152707
    },
    {
      "epoch": "2026-05-11T20:26:49.269696Z",
      "apogee_km": 518.4740941188211,
      "perigee_km": 510.37808951117495,
      "latitude_deg": 1.8105457504296444e-05,
      "longitude_deg": -85.57778003675423,
      "height_km": 521.5452925553801,
      "semi_major_axis_km": 6892.563091814997,
      "eccentricity": 0.0005873,
      "inclination_deg": 97.4475,
      "raan_deg": 90.7624,
      "arg_perigee_deg": 175.1956,
      "mean_anomaly_deg": 184.9335,
      "mean_motion_rev_day": 15.17160883
    }
  ]
}